{
  "type": "FeatureCollection",
  "features": [
    {
      "type": "Feature",
      "properties": {
        "norad_id": 41890,
        "name": "CYGFM07",
        "group": "weather",
        "lat": -23.443387480481412,
        "lon": -55.21375115402121,
        "alt_km": 412.9638920413481,
        "timestamp": "2025-12-18T13:51:49.299316+00:00",
        "meta_object_name": "CYGFM07",
        "meta_object_id": "2016-078G",
        "meta_epoch": "2025-12-18T06:19:29.744544",
        "meta_mean_motion": 15.50229763,
        "meta_eccentricity": 0.00101246,
        "meta_inclination": 34.9484,
        "meta_ra_of_asc_node": 345.2306,
        "meta_arg_of_pericenter": 262.8816,
        "meta_mean_anomaly": 97.0755,
        "meta_ephemeris_type": 0,
        "meta_classification_type": "U",
        "meta_norad_cat_id": 41890,
        "meta_element_set_no": 999,
        "meta_rev_at_epoch": 50081,
        "meta_bstar": 0.00034164034,
        "meta_mean_motion_dot": 0.00019955,
        "meta_mean_motion_ddot": 0,
        "tle_line1": "1 41890U 16078G   25352.26353871  .00019955  00000+0  34164-3 0  9995",
        "tle_line2": "2 41890  34.9484 345.2306 0010124 262.8816  97.0755 15.50229763500817"
      },
      "geometry": {
        "type": "Point",
        "coordinates": [
          -55.21375115402121,
          -23.443387480481412
        ]
      }
    },
    {
      "type": "Feature",
      "properties": {
        "norad_id": 41891,
        "name": "CYGFM03",
        "group": "weather",
        "lat": 17.414485440049408,
        "lon": 138.39953052648855,
        "alt_km": 414.41491247358044,
        "timestamp": "2025-12-18T13:51:49.299327+00:00",
        "meta_object_name": "CYGFM03",
        "meta_object_id": "2016-078H",
        "meta_epoch": "2025-12-18T07:02:35.840832",
        "meta_mean_motion": 15.50128149,
        "meta_eccentricity": 0.00096755,
        "meta_inclination": 34.9439,
        "meta_ra_of_asc_node": 346.956,
        "meta_arg_of_pericenter": 251.1061,
        "meta_mean_anomaly": 108.8613,
        "meta_ephemeris_type": 0,
        "meta_classification_type": "U",
        "meta_norad_cat_id": 41891,
        "meta_element_set_no": 999,
        "meta_rev_at_epoch": 50079,
        "meta_bstar": 0.00034192757,
        "meta_mean_motion_dot": 0.00019896,
        "meta_mean_motion_ddot": 0,
        "tle_line1": "1 41891U 16078H   25352.29347038  .00019896  00000+0  34193-3 0  9993",
        "tle_line2": "2 41891  34.9439 346.9560 0009675 251.1061 108.8613 15.50128149500797"
      },
      "geometry": {
        "type": "Point",
        "coordinates": [
          138.39953052648855,
          17.414485440049408
        ]
      }
    },
    {
      "type": "Feature",
      "properties": {
        "norad_id": 43010,
        "name": "FENGYUN 3D",
        "group": "weather",
        "lat": -51.44903048276664,
        "lon": -29.567837903307964,
        "alt_km": 834.007454235827,
        "timestamp": "2025-12-18T13:51:49.299340+00:00",
        "meta_object_name": "FENGYUN 3D",
        "meta_object_id": "2017-072A",
        "meta_epoch": "2025-12-18T07:20:38.700672",
        "meta_mean_motion": 14.19686496,
        "meta_eccentricity": 0.00012161,
        "meta_inclination": 98.9889,
        "meta_ra_of_asc_node": 318.6996,
        "meta_arg_of_pericenter": 165.1389,
        "meta_mean_anomaly": 194.9822,
        "meta_ephemeris_type": 0,
        "meta_classification_type": "U",
        "meta_norad_cat_id": 43010,
        "meta_element_set_no": 999,
        "meta_rev_at_epoch": 41932,
        "meta_bstar": 0.00010186697,
        "meta_mean_motion_dot": 1.69e-06,
        "meta_mean_motion_ddot": 0,
        "tle_line1": "1 43010U 17072A   25352.30600348  .00000169  00000+0  10187-3 0  9991",
        "tle_line2": "2 43010  98.9889 318.6996 0001216 165.1389 194.9822 14.19686496419324"
      },
      "geometry": {
        "type": "Point",
        "coordinates": [
          -29.567837903307964,
          -51.44903048276664
        ]
      }
    },
    {
      "type": "Feature",
      "properties": {
        "norad_id": 43013,
        "name": "NOAA 20 (JPSS-1)",
        "group": "weather",
        "lat": 79.0261358687626,
        "lon": 161.48848426591604,
        "alt_km": 818.1164198133165,
        "timestamp": "2025-12-18T13:51:49.299353+00:00",
        "meta_object_name": "NOAA 20 (JPSS-1)",
        "meta_object_id": "2017-073A",
        "meta_epoch": "2025-12-18T06:38:37.594464",
        "meta_mean_motion": 14.19527208,
        "meta_eccentricity": 0.00021378,
        "meta_inclination": 98.7606,
        "meta_ra_of_asc_node": 288.5132,
        "meta_arg_of_pericenter": 79.1798,
        "meta_mean_anomaly": 280.9619,
        "meta_ephemeris_type": 0,
        "meta_classification_type": "U",
        "meta_norad_cat_id": 43013,
        "meta_element_set_no": 999,
        "meta_rev_at_epoch": 41880,
        "meta_bstar": 4.9798459e-05,
        "meta_mean_motion_dot": 6.1e-07,
        "meta_mean_motion_ddot": 0,
        "tle_line1": "1 43013U 17073A   25352.27682401  .00000061  00000+0  49798-4 0  9993",
        "tle_line2": "2 43013  98.7606 288.5132 0002137  79.1798 280.9619 14.19527208418807"
      },
      "geometry": {
        "type": "Point",
        "coordinates": [
          161.48848426591604,
          79.0261358687626
        ]
      }
    },
    {
      "type": "Feature",
      "properties": {
        "norad_id": 43226,
        "name": "GOES 17",
        "group": "weather",
        "lat": 0.40462376523296817,
        "lon": -154.15063853394838,
        "alt_km": 35782.710803096175,
        "timestamp": "2025-12-18T13:51:49.299367+00:00",
        "meta_object_name": "GOES 17",
        "meta_object_id": "2018-022A",
        "meta_epoch": "2025-12-18T06:06:32.757984",
        "meta_mean_motion": 1.00271067,
        "meta_eccentricity": 0.00030896,
        "meta_inclination": 0.472,
        "meta_ra_of_asc_node": 89.1354,
        "meta_arg_of_pericenter": 191.192,
        "meta_mean_anomaly": 168.9295,
        "meta_ephemeris_type": 0,
        "meta_classification_type": "U",
        "meta_norad_cat_id": 43226,
        "meta_element_set_no": 999,
        "meta_rev_at_epoch": 2861,
        "meta_bstar": 0,
        "meta_mean_motion_dot": -1.58e-06,
        "meta_mean_motion_ddot": 0,
        "tle_line1": "1 43226U 18022A   25352.25454581 -.00000158  00000+0  00000+0 0  9994",
        "tle_line2": "2 43226   0.4720  89.1354 0003089 191.1920 168.9295  1.00271067 28616"
      },
      "geometry": {
        "type": "Point",
        "coordinates": [
          -154.15063853394838,
          0.40462376523296817
        ]
      }
    },
    {
      "type": "Feature",
      "properties": {
        "norad_id": 43491,
        "name": "FENGYUN 2H",
        "group": "weather",
        "lat": -2.342218791980424,
        "lon": 14.783282828719921,
        "alt_km": 35792.69439799429,
        "timestamp": "2025-12-18T13:51:49.299381+00:00",
        "meta_object_name": "FENGYUN 2H",
        "meta_object_id": "2018-050A",
        "meta_epoch": "2025-12-18T01:41:17.020896",
        "meta_mean_motion": 1.00271351,
        "meta_eccentricity": 0.00024215,
        "meta_inclination": 2.5643,
        "meta_ra_of_asc_node": 81.2737,
        "meta_arg_of_pericenter": 166.3209,
        "meta_mean_anomaly": 304.019,
        "meta_ephemeris_type": 0,
        "meta_classification_type": "U",
        "meta_norad_cat_id": 43491,
        "meta_element_set_no": 999,
        "meta_rev_at_epoch": 2762,
        "meta_bstar": 0,
        "meta_mean_motion_dot": -1.07e-06,
        "meta_mean_motion_ddot": 0,
        "tle_line1": "1 43491U 18050A   25352.07033589 -.00000107  00000+0  00000+0 0  9994",
        "tle_line2": "2 43491   2.5643  81.2737 0002421 166.3209 304.0190  1.00271351 27621"
      },
      "geometry": {
        "type": "Point",
        "coordinates": [
          14.783282828719921,
          -2.342218791980424
        ]
      }
    },
    {
      "type": "Feature",
      "properties": {
        "norad_id": 43689,
        "name": "METOP-C",
        "group": "weather",
        "lat": -77.74198688468994,
        "lon": 95.01580967545787,
        "alt_km": 827.8799882580815,
        "timestamp": "2025-12-18T13:51:49.299394+00:00",
        "meta_object_name": "METOP-C",
        "meta_object_id": "2018-087A",
        "meta_epoch": "2025-12-18T05:47:56.896800",
        "meta_mean_motion": 14.21486501,
        "meta_eccentricity": 9.817e-05,
        "meta_inclination": 98.6923,
        "meta_ra_of_asc_node": 49.9269,
        "meta_arg_of_pericenter": 29.173,
        "meta_mean_anomaly": 330.9502,
        "meta_ephemeris_type": 0,
        "meta_classification_type": "U",
        "meta_norad_cat_id": 43689,
        "meta_element_set_no": 999,
        "meta_rev_at_epoch": 36912,
        "meta_bstar": 7.546804e-05,
        "meta_mean_motion_dot": 1.21e-06,
        "meta_mean_motion_ddot": 0,
        "tle_line1": "1 43689U 18087A   25352.24163075  .00000121  00000+0  75468-4 0  9996",
        "tle_line2": "2 43689  98.6923  49.9269 0000981  29.1730 330.9502 14.21486501369123"
      },
      "geometry": {
        "type": "Point",
        "coordinates": [
          95.01580967545787,
          -77.74198688468994
        ]
      }
    }
  ]
}